CCSDS_OMM_VERS = 2.0
CREATION_DATE  = 
ORIGINATOR     = 

OBJECT_NAME    = H-2A R/B
OBJECT_ID      = 2006-002B
CENTER_NAME    = EARTH
REF_FRAME      = TEME
TIME_SYSTEM    = UTC
MEAN_ELEMENT_THEORY = SGP/SGP4

EPOCH          = 2026-03-19T20:04:13.817856
MEAN_MOTION    = 15.16630183
ECCENTRICITY   = .0052163
INCLINATION    = 98.2428
RA_OF_ASC_NODE = 226.7352
ARG_OF_PERICENTER = 206.2198
MEAN_ANOMALY   = 153.6390

EPHEMERIS_TYPE = 0
CLASSIFICATION_TYPE = U
NORAD_CAT_ID   = 28932
ELEMENT_SET_NO = 999
REV_AT_EPOCH   = 9597
BSTAR          = .44098E-3
MEAN_MOTION_DOT = .885E-4
MEAN_MOTION_DDOT = 0

CCSDS_OMM_VERS = 2.0
CREATION_DATE  = 
ORIGINATOR     = 

OBJECT_NAME    = RESURS-DK 1
OBJECT_ID      = 2006-021A
CENTER_NAME    = EARTH
REF_FRAME      = TEME
TIME_SYSTEM    = UTC
MEAN_ELEMENT_THEORY = SGP/SGP4

EPOCH          = 2026-03-19T18:49:34.289760
MEAN_MOTION    = 15.12812447
ECCENTRICITY   = .0000856
INCLINATION    = 69.9337
RA_OF_ASC_NODE = 210.9089
ARG_OF_PERICENTER = 135.2424
MEAN_ANOMALY   = 224.8811

EPHEMERIS_TYPE = 0
CLASSIFICATION_TYPE = U
NORAD_CAT_ID   = 29228
ELEMENT_SET_NO = 999
REV_AT_EPOCH   = 8905
BSTAR          = .14998E-3
MEAN_MOTION_DOT = .2533E-4
MEAN_MOTION_DDOT = 0

CCSDS_OMM_VERS = 2.0
CREATION_DATE  = 
ORIGINATOR     = 

OBJECT_NAME    = CZ-4B R/B
OBJECT_ID      = 2006-046C
CENTER_NAME    = EARTH
REF_FRAME      = TEME
TIME_SYSTEM    = UTC
MEAN_ELEMENT_THEORY = SGP/SGP4

EPOCH          = 2026-03-19T16:50:19.497984
MEAN_MOTION    = 15.16999798
ECCENTRICITY   = .0031983
INCLINATION    = 97.5570
RA_OF_ASC_NODE = 123.5831
ARG_OF_PERICENTER = 230.9957
MEAN_ANOMALY   = 128.8427

EPHEMERIS_TYPE = 0
CLASSIFICATION_TYPE = U
NORAD_CAT_ID   = 29507
ELEMENT_SET_NO = 999
REV_AT_EPOCH   = 6156
BSTAR          = .17447E-3
MEAN_MOTION_DOT = .3421E-4
MEAN_MOTION_DDOT = 0

CCSDS_OMM_VERS = 2.0
CREATION_DATE  = 
ORIGINATOR     = 

OBJECT_NAME    = CZ-2C R/B
OBJECT_ID      = 2007-010B
CENTER_NAME    = EARTH
REF_FRAME      = TEME
TIME_SYSTEM    = UTC
MEAN_ELEMENT_THEORY = SGP/SGP4

EPOCH          = 2026-03-19T20:53:50.478432
MEAN_MOTION    = 14.20249751
ECCENTRICITY   = .0057845
INCLINATION    = 98.3988
RA_OF_ASC_NODE = 191.6397
ARG_OF_PERICENTER = 264.4271
MEAN_ANOMALY   = 95.0308

EPHEMERIS_TYPE = 0
CLASSIFICATION_TYPE = U
NORAD_CAT_ID   = 31114
ELEMENT_SET_NO = 999
REV_AT_EPOCH   = 98116
BSTAR          = .68354E-4
MEAN_MOTION_DOT = .107E-5
MEAN_MOTION_DDOT = 0

CCSDS_OMM_VERS = 2.0
CREATION_DATE  = 
ORIGINATOR     = 

OBJECT_NAME    = COSMO-SKYMED 1
OBJECT_ID      = 2007-023A
CENTER_NAME    = EARTH
REF_FRAME      = TEME
TIME_SYSTEM    = UTC
MEAN_ELEMENT_THEORY = SGP/SGP4

EPOCH          = 2026-03-19T19:51:14.623776
MEAN_MOTION    = 14.96614074
ECCENTRICITY   = .0001438
INCLINATION    = 97.8881
RA_OF_ASC_NODE = 269.9420
ARG_OF_PERICENTER = 87.6805
MEAN_ANOMALY   = 272.4581

EPHEMERIS_TYPE = 0
CLASSIFICATION_TYPE = U
NORAD_CAT_ID   = 31598
ELEMENT_SET_NO = 999
REV_AT_EPOCH   = 1642
BSTAR          = .22374E-3
MEAN_MOTION_DOT = .2489E-4
MEAN_MOTION_DDOT = 0

CCSDS_OMM_VERS = 2.0
CREATION_DATE  = 
ORIGINATOR     = 

OBJECT_NAME    = COSMOS 2428
OBJECT_ID      = 2007-029A
CENTER_NAME    = EARTH
REF_FRAME      = TEME
TIME_SYSTEM    = UTC
MEAN_ELEMENT_THEORY = SGP/SGP4

EPOCH          = 2026-03-19T17:30:02.995776
MEAN_MOTION    = 14.12947467
ECCENTRICITY   = .0009508
INCLINATION    = 70.9441
RA_OF_ASC_NODE = 182.2723
ARG_OF_PERICENTER = 266.8413
MEAN_ANOMALY   = 93.1620

EPHEMERIS_TYPE = 0
CLASSIFICATION_TYPE = U
NORAD_CAT_ID   = 31792
ELEMENT_SET_NO = 999
REV_AT_EPOCH   = 96551
BSTAR          = .16178E-4
MEAN_MOTION_DOT = -.18E-6
MEAN_MOTION_DDOT = 0

CCSDS_OMM_VERS = 2.0
CREATION_DATE  = 
ORIGINATOR     = 

OBJECT_NAME    = SL-16 R/B
OBJECT_ID      = 2007-029B
CENTER_NAME    = EARTH
REF_FRAME      = TEME
TIME_SYSTEM    = UTC
MEAN_ELEMENT_THEORY = SGP/SGP4

EPOCH          = 2026-03-19T16:25:38.167392
MEAN_MOTION    = 14.14838902
ECCENTRICITY   = .0002336
INCLINATION    = 70.9756
RA_OF_ASC_NODE = 151.3763
ARG_OF_PERICENTER = 276.4551
MEAN_ANOMALY   = 198.6253

EPHEMERIS_TYPE = 0
CLASSIFICATION_TYPE = U
NORAD_CAT_ID   = 31793
ELEMENT_SET_NO = 999
REV_AT_EPOCH   = 96678
BSTAR          = .20703E-3
MEAN_MOTION_DOT = .352E-5
MEAN_MOTION_DDOT = 0

CCSDS_OMM_VERS = 2.0
CREATION_DATE  = 
ORIGINATOR     = 

OBJECT_NAME    = KORONAS-FOTON
OBJECT_ID      = 2009-003A
CENTER_NAME    = EARTH
REF_FRAME      = TEME
TIME_SYSTEM    = UTC
MEAN_ELEMENT_THEORY = SGP/SGP4

EPOCH          = 2026-03-19T05:31:01.089408
MEAN_MOTION    = 15.43545810
ECCENTRICITY   = .00117858
INCLINATION    = 82.4270
RA_OF_ASC_NODE = 265.9565
ARG_OF_PERICENTER = 118.5773
MEAN_ANOMALY   = 241.6662

EPHEMERIS_TYPE = 0
CLASSIFICATION_TYPE = U
NORAD_CAT_ID   = 33504
ELEMENT_SET_NO = 999
REV_AT_EPOCH   = 94721
BSTAR          = .21725514E-3
MEAN_MOTION_DOT = .9812E-4
MEAN_MOTION_DDOT = 0

CCSDS_OMM_VERS = 2.0
CREATION_DATE  = 
ORIGINATOR     = 

OBJECT_NAME    = CZ-2C R/B
OBJECT_ID      = 2011-030B
CENTER_NAME    = EARTH
REF_FRAME      = TEME
TIME_SYSTEM    = UTC
MEAN_ELEMENT_THEORY = SGP/SGP4

EPOCH          = 2026-03-19T20:54:50.448672
MEAN_MOTION    = 14.81258787
ECCENTRICITY   = .0051566
INCLINATION    = 97.8563
RA_OF_ASC_NODE = 35.9320
ARG_OF_PERICENTER = 318.6211
MEAN_ANOMALY   = 57.6131

EPHEMERIS_TYPE = 0
CLASSIFICATION_TYPE = U
NORAD_CAT_ID   = 37731
ELEMENT_SET_NO = 999
REV_AT_EPOCH   = 79160
BSTAR          = .18115E-3
MEAN_MOTION_DOT = .1389E-4
MEAN_MOTION_DDOT = 0

CCSDS_OMM_VERS = 2.0
CREATION_DATE  = 
ORIGINATOR     = 

OBJECT_NAME    = H-2A R/B
OBJECT_ID      = 2012-025E
CENTER_NAME    = EARTH
REF_FRAME      = TEME
TIME_SYSTEM    = UTC
MEAN_ELEMENT_THEORY = SGP/SGP4

EPOCH          = 2026-03-19T20:00:26.335296
MEAN_MOTION    = 14.95235764
ECCENTRICITY   = .0043155
INCLINATION    = 98.4744
RA_OF_ASC_NODE = 46.6931
ARG_OF_PERICENTER = 279.9701
MEAN_ANOMALY   = 79.6648

EPHEMERIS_TYPE = 0
CLASSIFICATION_TYPE = U
NORAD_CAT_ID   = 38341
ELEMENT_SET_NO = 999
REV_AT_EPOCH   = 74973
BSTAR          = .25053E-3
MEAN_MOTION_DOT = .2736E-4
MEAN_MOTION_DDOT = 0

CCSDS_OMM_VERS = 2.0
CREATION_DATE  = 
ORIGINATOR     = 

OBJECT_NAME    = SHIJIAN-16 (SJ-16)
OBJECT_ID      = 2013-057A
CENTER_NAME    = EARTH
REF_FRAME      = TEME
TIME_SYSTEM    = UTC
MEAN_ELEMENT_THEORY = SGP/SGP4

EPOCH          = 2026-03-19T19:39:03.263328
MEAN_MOTION    = 14.92387361
ECCENTRICITY   = .0015266
INCLINATION    = 74.9740
RA_OF_ASC_NODE = 165.9144
ARG_OF_PERICENTER = 86.4878
MEAN_ANOMALY   = 273.8056

EPHEMERIS_TYPE = 0
CLASSIFICATION_TYPE = U
NORAD_CAT_ID   = 39358
ELEMENT_SET_NO = 999
REV_AT_EPOCH   = 67301
BSTAR          = .1083E-3
MEAN_MOTION_DOT = .1082E-4
MEAN_MOTION_DDOT = 0

CCSDS_OMM_VERS = 2.0
CREATION_DATE  = 
ORIGINATOR     = 

OBJECT_NAME    = SL-4 R/B
OBJECT_ID      = 2014-021B
CENTER_NAME    = EARTH
REF_FRAME      = TEME
TIME_SYSTEM    = UTC
MEAN_ELEMENT_THEORY = SGP/SGP4

EPOCH          = 2026-03-19T19:42:38.148768
MEAN_MOTION    = 15.39497305
ECCENTRICITY   = .0096678
INCLINATION    = 51.6057
RA_OF_ASC_NODE = 287.8393
ARG_OF_PERICENTER = 139.8574
MEAN_ANOMALY   = 220.9604

EPHEMERIS_TYPE = 0
CLASSIFICATION_TYPE = U
NORAD_CAT_ID   = 39679
ELEMENT_SET_NO = 999
REV_AT_EPOCH   = 65783
BSTAR          = .25508E-3
MEAN_MOTION_DOT = .11538E-3
MEAN_MOTION_DDOT = 0

